{"type": "FeatureCollection", "features": [ {"type": "Feature", "properties": {"norad_id": 34875, "name": "COSMOS 2251 DEB", "group": "cosmos-2251-debris", "lat": 38.13078403331833, "lon": -50.13432778615749, "alt_km": 732.6111810000411, "timestamp": "2025-12-20T22:39:11.020256+00:00", "meta": {"OBJECT_NAME": "COSMOS 2251 DEB", "OBJECT_ID": "1993-036ACN", "EPOCH": "2025-12-19T11:28:39.014112", "MEAN_MOTION": 14.48947014, "ECCENTRICITY": 0.0016196, "INCLINATION": 74.0433, "RA_OF_ASC_NODE": 145.5897, "ARG_OF_PERICENTER": 268.763, "MEAN_ANOMALY": 149.3216, "EPHEMERIS_TYPE": 0, "CLASSIFICATION_TYPE": "U", "NORAD_CAT_ID": 34875, "ELEMENT_SET_NO": 999, "REV_AT_EPOCH": 87853, "BSTAR": 0.00033791, "MEAN_MOTION_DOT": 1.255e-05, "MEAN_MOTION_DDOT": 0}, "tle": {"line1": "1 34875U 93036ACN 25353.47822933  .00001255  00000+0  33791-3 0  9992", "line2": "2 34875  74.0433 145.5897 0016196 268.7630 149.3216 14.48947014878533"}}, "geometry": {"type": "Point", "coordinates": [-50.13432778615749, 38.13078403331833]}}, {"type": "Feature", "properties": {"norad_id": 34878, "name": "COSMOS 2251 DEB", "group": "cosmos-2251-debris", "lat": 57.473426656154075, "lon": 61.1124263042311, "alt_km": 851.2879330259066, "timestamp": "2025-12-20T22:39:11.020266+00:00", "meta": {"OBJECT_NAME": "COSMOS 2251 DEB", "OBJECT_ID": "1993-036ACR", "EPOCH": "2025-12-20T02:51:54.266112", "MEAN_MOTION": 13.44200085, "ECCENTRICITY": 0.04356019, "INCLINATION": 73.965, "RA_OF_ASC_NODE": 35.6157, "ARG_OF_PERICENTER": 17.6827, "MEAN_ANOMALY": 11.8411, "EPHEMERIS_TYPE": 0, "CLASSIFICATION_TYPE": "U", "NORAD_CAT_ID": 34878, "ELEMENT_SET_NO": 999, "REV_AT_EPOCH": 81372, "BSTAR": 0.00054186737, "MEAN_MOTION_DOT": 5.36e-06, "MEAN_MOTION_DDOT": 0}, "tle": {"line1": "1 34878U 93036ACR 25354.11937808  .00000536  00000+0  54187-3 0  9998", "line2": "2 34878  73.9650  35.6157 0435601  17.6827  11.8411 13.44200085813723"}}, "geometry": {"type": "Point", "coordinates": [61.1124263042311, 57.473426656154075]}}, {"type": "Feature", "properties": {"norad_id": 34882, "name": "COSMOS 2251 DEB", "group": "cosmos-2251-debris", "lat": 72.22979567895709, "lon": -33.298842268562545, "alt_km": 712.3537660082156, "timestamp": "2025-12-20T22:39:11.020275+00:00", "meta": {"OBJECT_NAME": "COSMOS 2251 DEB", "OBJECT_ID": "1993-036ACV", "EPOCH": "2025-12-20T00:51:13.406976", "MEAN_MOTION": 14.61609371, "ECCENTRICITY": 0.00831704, "INCLINATION": 74.0454, "RA_OF_ASC_NODE": 211.6418, "ARG_OF_PERICENTER": 336.8506, "MEAN_ANOMALY": 22.892, "EPHEMERIS_TYPE": 0, "CLASSIFICATION_TYPE": "U", "NORAD_CAT_ID": 34882, "ELEMENT_SET_NO": 999, "REV_AT_EPOCH": 88631, "BSTAR": 9.3819034e-05, "MEAN_MOTION_DOT": 4.56e-06, "MEAN_MOTION_DDOT": 0}, "tle": {"line1": "1 34882U 93036ACV 25354.03557184  .00000456  00000+0  93819-4 0  9996", "line2": "2 34882  74.0454 211.6418 0083170 336.8506  22.8920 14.61609371886311"}}, "geometry": {"type": "Point", "coordinates": [-33.298842268562545, 72.22979567895709]}}, {"type": "Feature", "properties": {"norad_id": 34883, "name": "COSMOS 2251 DEB", "group": "cosmos-2251-debris", "lat": -28.379659004123003, "lon": -123.77524270657914, "alt_km": 662.702094523197, "timestamp": "2025-12-20T22:39:11.020285+00:00", "meta": {"OBJECT_NAME": "COSMOS 2251 DEB", "OBJECT_ID": "1993-036ACW", "EPOCH": "2025-12-18T13:27:07.209504", "MEAN_MOTION": 14.51672805, "ECCENTRICITY": 0.00951028, "INCLINATION": 74.2022, "RA_OF_ASC_NODE": 51.868, "ARG_OF_PERICENTER": 236.3156, "MEAN_ANOMALY": 122.8912, "EPHEMERIS_TYPE": 0, "CLASSIFICATION_TYPE": "U", "NORAD_CAT_ID": 34883, "ELEMENT_SET_NO": 999, "REV_AT_EPOCH": 86524, "BSTAR": 0.0028915699, "MEAN_MOTION_DOT": 0.00012297, "MEAN_MOTION_DDOT": 0}, "tle": {"line1": "1 34883U 93036ACW 25352.56050011  .00012297  00000+0  28916-2 0  9990", "line2": "2 34883  74.2022  51.8680 0095102 236.3156 122.8912 14.51672805865245"}}, "geometry": {"type": "Point", "coordinates": [-123.77524270657914, -28.379659004123003]}}, {"type": "Feature", "properties": {"norad_id": 34884, "name": "COSMOS 2251 DEB", "group": "cosmos-2251-debris", "lat": -22.914395989003744, "lon": -132.73963013775858, "alt_km": 603.572026682783, "timestamp": "2025-12-20T22:39:11.020294+00:00", "meta": {"OBJECT_NAME": "COSMOS 2251 DEB", "OBJECT_ID": "1993-036ACX", "EPOCH": "2025-12-20T14:14:11.616000", "MEAN_MOTION": 14.9038608, "ECCENTRICITY": 0.00026989, "INCLINATION": 74.0173, "RA_OF_ASC_NODE": 41.0042, "ARG_OF_PERICENTER": 45.569, "MEAN_ANOMALY": 77.4134, "EPHEMERIS_TYPE": 0, "CLASSIFICATION_TYPE": "U", "NORAD_CAT_ID": 34884, "ELEMENT_SET_NO": 999, "REV_AT_EPOCH": 87922, "BSTAR": 0.0013456712, "MEAN_MOTION_DOT": 0.00013093, "MEAN_MOTION_DDOT": 0}, "tle": {"line1": "1 34884U 93036ACX 25354.59319000  .00013093  00000+0  13457-2 0  9991", "line2": "2 34884  74.0173  41.0042 0002698  45.5690  77.4134 14.90386080879229"}}, "geometry": {"type": "Point", "coordinates": [-132.73963013775858, -22.914395989003744]}}, {"type": "Feature", "properties": {"norad_id": 34885, "name": "COSMOS 2251 DEB", "group": "cosmos-2251-debris", "lat": 25.819161338975128, "lon": 175.53884091276203, "alt_km": 726.8914469954316, "timestamp": "2025-12-20T22:39:11.020304+00:00", "meta": {"OBJECT_NAME": "COSMOS 2251 DEB", "OBJECT_ID": "1993-036ACY", "EPOCH": "2025-12-19T20:36:45.224064", "MEAN_MOTION": 14.51536925, "ECCENTRICITY": 0.00150862, "INCLINATION": 74.0297, "RA_OF_ASC_NODE": 169.617, "ARG_OF_PERICENTER": 254.9308, "MEAN_ANOMALY": 224.4752, "EPHEMERIS_TYPE": 0, "CLASSIFICATION_TYPE": "U", "NORAD_CAT_ID": 34885, "ELEMENT_SET_NO": 999, "REV_AT_EPOCH": 87582, "BSTAR": 0.00048267206, "MEAN_MOTION_DOT": 1.906e-05, "MEAN_MOTION_DDOT": 0}, "tle": {"line1": "1 34885U 93036ACY 25353.85885676  .00001906  00000+0  48267-3 0  9995", "line2": "2 34885  74.0297 169.6170 0015086 254.9308 224.4752 14.51536925875827"}}, "geometry": {"type": "Point", "coordinates": [175.53884091276203, 25.819161338975128]}}, {"type": "Feature", "properties": {"norad_id": 34886, "name": "COSMOS 2251 DEB", "group": "cosmos-2251-debris", "lat": 2.594466508394737, "lon": -17.55422478174521, "alt_km": 470.53172872082814, "timestamp": "2025-12-20T22:39:11.020313+00:00", "meta": {"OBJECT_NAME": "COSMOS 2251 DEB", "OBJECT_ID": "1993-036ACZ", "EPOCH": "2025-12-19T05:20:10.106016", "MEAN_MOTION": 15.39455892, "ECCENTRICITY": 0.0031395, "INCLINATION": 73.9504, "RA_OF_ASC_NODE": 166.9286, "ARG_OF_PERICENTER": 349.772, "MEAN_ANOMALY": 10.2844, "EPHEMERIS_TYPE": 0, "CLASSIFICATION_TYPE": "U", "NORAD_CAT_ID": 34886, "ELEMENT_SET_NO": 999, "REV_AT_EPOCH": 63098, "BSTAR": 0.0012728, "MEAN_MOTION_DOT": 0.00051055, "MEAN_MOTION_DDOT": 0}, "tle": {"line1": "1 34886U 93036ACZ 25353.22233919  .00051055  00000+0  12728-2 0  9996", "line2": "2 34886  73.9504 166.9286 0031395 349.7720  10.2844 15.39455892630986"}}, "geometry": {"type": "Point", "coordinates": [-17.55422478174521, 2.594466508394737]}}, {"type": "Feature", "properties": {"norad_id": 34907, "name": "COSMOS 2251 DEB", "group": "cosmos-2251-debris", "lat": -25.584892880451324, "lon": 22.509206402312035, "alt_km": 410.6835420180005, "timestamp": "2025-12-20T22:39:11.020322+00:00", "meta": {"OBJECT_NAME": "COSMOS 2251 DEB", "OBJECT_ID": "1993-036ADC", "EPOCH": "2025-12-20T04:10:12.406944", "MEAN_MOTION": 15.49047772, "ECCENTRICITY": 0.00190364, "INCLINATION": 73.9676, "RA_OF_ASC_NODE": 32.117, "ARG_OF_PERICENTER": 330.6977, "MEAN_ANOMALY": 29.3166, "EPHEMERIS_TYPE": 0, "CLASSIFICATION_TYPE": "U", "NORAD_CAT_ID": 34907, "ELEMENT_SET_NO": 999, "REV_AT_EPOCH": 88088, "BSTAR": 0.0054056832, "MEAN_MOTION_DOT": 0.00306776, "MEAN_MOTION_DDOT": 0}, "tle": {"line1": "1 34907U 93036ADC 25354.17375471  .00306776  00000+0  54057-2 0  9999", "line2": "2 34907  73.9676  32.1170 0019036 330.6977  29.3166 15.49047772880886"}}, "geometry": {"type": "Point", "coordinates": [22.509206402312035, -25.584892880451324]}}, {"type": "Feature", "properties": {"norad_id": 34908, "name": "COSMOS 2251 DEB", "group": "cosmos-2251-debris", "lat": 30.416773943143873, "lon": 18.24128802697964, "alt_km": 736.6049523711208, "timestamp": "2025-12-20T22:39:11.020331+00:00", "meta": {"OBJECT_NAME": "COSMOS 2251 DEB", "OBJECT_ID": "1993-036ADD", "EPOCH": "2025-12-20T07:32:52.101024", "MEAN_MOTION": 14.37418877, "ECCENTRICITY": 0.00404085, "INCLINATION": 74.0578, "RA_OF_ASC_NODE": 9.7367, "ARG_OF_PERICENTER": 23.4856, "MEAN_ANOMALY": 352.7284, "EPHEMERIS_TYPE": 0, "CLASSIFICATION_TYPE": "U", "NORAD_CAT_ID": 34908, "ELEMENT_SET_NO": 999, "REV_AT_EPOCH": 87388, "BSTAR": 0.00037887067, "MEAN_MOTION_DOT": 1.117e-05, "MEAN_MOTION_DDOT": 0}, "tle": {"line1": "1 34908U 93036ADD 25354.31449191  .00001117  00000+0  37887-3 0  9991", "line2": "2 34908  74.0578   9.7367 0040408  23.4856 352.7284 14.37418877873888"}}, "geometry": {"type": "Point", "coordinates": [18.24128802697964, 30.416773943143873]}}, {"type": "Feature", "properties": {"norad_id": 34909, "name": "COSMOS 2251 DEB", "group": "cosmos-2251-debris", "lat": -71.07192448956293, "lon": 3.7306614677165237, "alt_km": 638.2389070424497, "timestamp": "2025-12-20T22:39:11.020340+00:00", "meta": {"OBJECT_NAME": "COSMOS 2251 DEB", "OBJECT_ID": "1993-036ADE", "EPOCH": "2025-12-19T21:01:21.584064", "MEAN_MOTION": 14.77890246, "ECCENTRICITY": 0.0084047, "INCLINATION": 74.0147, "RA_OF_ASC_NODE": 62.542, "ARG_OF_PERICENTER": 196.7098, "MEAN_ANOMALY": 163.1306, "EPHEMERIS_TYPE": 0, "CLASSIFICATION_TYPE": "U", "NORAD_CAT_ID": 34909, "ELEMENT_SET_NO": 999, "REV_AT_EPOCH": 66957, "BSTAR": 0.00035617, "MEAN_MOTION_DOT": 2.682e-05, "MEAN_MOTION_DDOT": 0}, "tle": {"line1": "1 34909U 93036ADE 25353.87594426  .00002682  00000+0  35617-3 0  9991", "line2": "2 34909  74.0147  62.5420 0084047 196.7098 163.1306 14.77890246669573"}}, "geometry": {"type": "Point", "coordinates": [3.7306614677165237, -71.07192448956293]}}]}